[{"OBJECT_NAME":"STARLINK-35365","OBJECT_ID":"2025-243K","EPOCH":"2026-03-09T18:30:45.268128","MEAN_MOTION":15.3021168,"ECCENTRICITY":0.0001015,"INCLINATION":53.1581,"RA_OF_ASC_NODE":245.0632,"ARG_OF_PERICENTER":72.4283,"MEAN_ANOMALY":287.6828,"EPHEMERIS_TYPE":0,"CLASSIFICATION_TYPE":"U","NORAD_CAT_ID":66186,"ELEMENT_SET_NO":999,"REV_AT_EPOCH":2066,"BSTAR":0.0011684038,"MEAN_MOTION_DOT":0.00034418,"MEAN_MOTION_DDOT":0},{"OBJECT_NAME":"OBJECT BD","OBJECT_ID":"2025-313BD","EPOCH":"2026-03-09T15:06:44.992224","MEAN_MOTION":15.3000236,"ECCENTRICITY":0.00072867,"INCLINATION":97.397,"RA_OF_ASC_NODE":145.285,"ARG_OF_PERICENTER":333.4514,"MEAN_ANOMALY":26.6352,"EPHEMERIS_TYPE":0,"CLASSIFICATION_TYPE":"U","NORAD_CAT_ID":67299,"ELEMENT_SET_NO":999,"REV_AT_EPOCH":1083,"BSTAR":0.0027633805,"MEAN_MOTION_DOT":0.0008101,"MEAN_MOTION_DDOT":0}]
